{
  "norad_id": 63652,
  "name": "STARLINK-33663",
  "history": [
    {
      "epoch": "2026-04-17T19:41:08.875968Z",
      "apogee_km": 484.04024966853103,
      "perigee_km": 482.0097573852072,
      "latitude_deg": 6.201050929341436e-05,
      "longitude_deg": 2.783573658637646,
      "height_km": 482.77735297779066,
      "semi_major_axis_km": 6861.162003526869,
      "eccentricity": 0.00014797,
      "inclination_deg": 43.0009,
      "raan_deg": 144.0186,
      "arg_perigee_deg": 271.3836,
      "mean_anomaly_deg": 88.6847,
      "mean_motion_rev_day": 15.27588046
    },
    {
      "epoch": "2026-04-18T19:13:28.923744Z",
      "apogee_km": 484.4490875721867,
      "perigee_km": 481.4933221575302,
      "latitude_deg": -4.170259912420231e-05,
      "longitude_deg": 3.1912224945789016,
      "height_km": 483.0068538994853,
      "semi_major_axis_km": 6861.108204864858,
      "eccentricity": 0.0002154,
      "inclination_deg": 42.9986,
      "raan_deg": 138.4766,
      "arg_perigee_deg": 259.9234,
      "mean_anomaly_deg": 100.1374,
      "mean_motion_rev_day": 15.27606013
    },
    {
      "epoch": "2026-04-19T09:20:53.467872Z",
      "apogee_km": 483.94006618689764,
      "perigee_km": 482.06299590757317,
      "latitude_deg": 4.9309186045541405e-05,
      "longitude_deg": 147.43882096339937,
      "height_km": 482.84416350148365,
      "semi_major_axis_km": 6861.138531047235,
      "eccentricity": 0.00013679,
      "inclination_deg": 43.002,
      "raan_deg": 135.1564,
      "arg_perigee_deg": 265.9826,
      "mean_anomaly_deg": 94.087,
      "mean_motion_rev_day": 15.27595885
    },
    {
      "epoch": "2026-04-20T10:27:24.203520Z",
      "apogee_km": 484.4735896836273,
      "perigee_km": 481.64019105466105,
      "latitude_deg": -1.4261915853342271e-05,
      "longitude_deg": 123.87071524210285,
      "height_km": 482.56918717258674,
      "semi_major_axis_km": 6861.193890369144,
      "eccentricity": 0.00020648,
      "inclination_deg": 43.005,
      "raan_deg": 129.2476,
      "arg_perigee_deg": 280.8013,
      "mean_anomaly_deg": 79.2606,
      "mean_motion_rev_day": 15.27577397
    },
    {
      "epoch": "2026-04-21T17:50:32.174016Z",
      "apogee_km": 484.1308668479069,
      "perigee_km": 481.90648017855347,
      "latitude_deg": 3.281820680317345e-05,
      "longitude_deg": 4.4105932229811415,
      "height_km": 482.942643488637,
      "semi_major_axis_km": 6861.15567351323,
      "eccentricity": 0.0001621,
      "inclination_deg": 43.0011,
      "raan_deg": 121.8596,
      "arg_perigee_deg": 262.4048,
      "mean_anomaly_deg": 97.662,
      "mean_motion_rev_day": 15.2759016
    },
    {
      "epoch": "2026-04-22T17:22:52.542336Z",
      "apogee_km": 484.07290558087607,
      "perigee_km": 481.91576588892076,
      "latitude_deg": -3.764814288667565e-05,
      "longitude_deg": 4.820635629359049,
      "height_km": 482.9324474057369,
      "semi_major_axis_km": 6861.131335734898,
      "eccentricity": 0.0001572,
      "inclination_deg": 43.0021,
      "raan_deg": 116.3213,
      "arg_perigee_deg": 261.4115,
      "mean_anomaly_deg": 98.6558,
      "mean_motion_rev_day": 15.27598288
    },
    {
      "epoch": "2026-04-23T01:13:39.249408Z",
      "apogee_km": 483.7366339028313,
      "perigee_km": 482.226364498787,
      "latitude_deg": 1.2581338540647352e-05,
      "longitude_deg": -115.04236076821137,
      "height_km": 482.86552958913296,
      "semi_major_axis_km": 6861.118499200809,
      "eccentricity": 0.00011006,
      "inclination_deg": 43.0018,
      "raan_deg": 114.4751,
      "arg_perigee_deg": 261.8225,
      "mean_anomaly_deg": 98.2502,
      "mean_motion_rev_day": 15.27602575
    },
    {
      "epoch": "2026-04-24T00:46:00.062688Z",
      "apogee_km": 484.6306764905303,
      "perigee_km": 481.3473532473754,
      "latitude_deg": -3.975051008864268e-06,
      "longitude_deg": -114.63431923213997,
      "height_km": 481.9994637411344,
      "semi_major_axis_km": 6861.126014868953,
      "eccentricity": 0.00023927,
      "inclination_deg": 43.0009,
      "raan_deg": 108.9366,
      "arg_perigee_deg": 297.854,
      "mean_anomaly_deg": 62.2069,
      "mean_motion_rev_day": 15.27600065
    },
    {
      "epoch": "2026-04-25T15:59:55.281120Z",
      "apogee_km": 483.7620061229418,
      "perigee_km": 482.2882285001433,
      "latitude_deg": 2.148156280491307e-05,
      "longitude_deg": 6.041129004302927,
      "height_km": 482.7659677874685,
      "semi_major_axis_km": 6861.162117311542,
      "eccentricity": 0.0001074,
      "inclination_deg": 43.0014,
      "raan_deg": 99.7033,
      "arg_perigee_deg": 272.7793,
      "mean_anomaly_deg": 87.2936,
      "mean_motion_rev_day": 15.27588008
    },
    {
      "epoch": "2026-04-26T15:32:16.876320Z",
      "apogee_km": 483.73559840528196,
      "perigee_km": 482.3279610184363,
      "latitude_deg": 6.626683005548383e-05,
      "longitude_deg": 6.447571105131117,
      "height_km": 482.62376413912347,
      "semi_major_axis_km": 6861.168779711858,
      "eccentricity": 0.00010258,
      "inclination_deg": 42.9949,
      "raan_deg": 94.1664,
      "arg_perigee_deg": 75.0311,
      "mean_anomaly_deg": 285.0655,
      "mean_motion_rev_day": 15.27585783
    },
    {
      "epoch": "2026-04-27T15:04:36.702912Z",
      "apogee_km": 484.0095282760076,
      "perigee_km": 482.00607399407727,
      "latitude_deg": -2.2871025903843518e-05,
      "longitude_deg": 6.85846010818425,
      "height_km": 482.78321552456373,
      "semi_major_axis_km": 6861.144801135042,
      "eccentricity": 0.000146,
      "inclination_deg": 43.0023,
      "raan_deg": 88.6267,
      "arg_perigee_deg": 270.0912,
      "mean_anomaly_deg": 89.9772,
      "mean_motion_rev_day": 15.27593791
    },
    {
      "epoch": "2026-04-28T14:36:58.269600Z",
      "apogee_km": 483.4424209619938,
      "perigee_km": 482.66985061490413,
      "latitude_deg": 5.2138510600712036e-05,
      "longitude_deg": 7.263153946133551,
      "height_km": 482.8577348172291,
      "semi_major_axis_km": 6861.193135788449,
      "eccentricity": 5.63e-05,
      "inclination_deg": 43.0009,
      "raan_deg": 83.0879,
      "arg_perigee_deg": 266.2077,
      "mean_anomaly_deg": 93.8711,
      "mean_motion_rev_day": 15.27577649
    },
    {
      "epoch": "2026-04-29T20:25:56.788608Z",
      "apogee_km": 483.50140094750805,
      "perigee_km": 482.5408388107253,
      "latitude_deg": -5.089015444236891e-05,
      "longitude_deg": -88.2213947222733,
      "height_km": 482.88390198841796,
      "semi_major_axis_km": 6861.158119879116,
      "eccentricity": 7e-05,
      "inclination_deg": 43.0017,
      "raan_deg": 76.0718,
      "arg_perigee_deg": 259.6216,
      "mean_anomaly_deg": 100.4556,
      "mean_motion_rev_day": 15.27589343
    },
    {
      "epoch": "2026-04-30T05:50:52.650816Z",
      "apogee_km": 483.71443023339907,
      "perigee_km": 482.22968623319866,
      "latitude_deg": 2.9680084343940076e-06,
      "longitude_deg": 127.94252188024161,
      "height_km": 482.89064363964224,
      "semi_major_axis_km": 6861.109058233299,
      "eccentricity": 0.0001082,
      "inclination_deg": 43.0013,
      "raan_deg": 73.8551,
      "arg_perigee_deg": 258.9687,
      "mean_anomaly_deg": 101.1043,
      "mean_motion_rev_day": 15.27605728
    },
    {
      "epoch": "2026-05-02T04:55:34.165056Z",
      "apogee_km": 483.8509084022071,
      "perigee_km": 482.1836479126141,
      "latitude_deg": 4.062467105899717e-05,
      "longitude_deg": 128.75965097362862,
      "height_km": 482.7881724698832,
      "semi_major_axis_km": 6861.15427815741,
      "eccentricity": 0.0001215,
      "inclination_deg": 43.0022,
      "raan_deg": 62.7786,
      "arg_perigee_deg": 270.405,
      "mean_anomaly_deg": 89.6663,
      "mean_motion_rev_day": 15.27590626
    },
    {
      "epoch": "2026-05-03T12:18:42.498432Z",
      "apogee_km": 483.4882871003156,
      "perigee_km": 482.5429574920154,
      "latitude_deg": -4.726738570632207e-05,
      "longitude_deg": 9.299668763268766,
      "height_km": 482.7972133345003,
      "semi_major_axis_km": 6861.152622296165,
      "eccentricity": 6.889e-05,
      "inclination_deg": 43.0016,
      "raan_deg": 55.3924,
      "arg_perigee_deg": 269.3538,
      "mean_anomaly_deg": 90.7234,
      "mean_motion_rev_day": 15.27591179
    },
    {
      "epoch": "2026-05-04T19:41:50.441280Z",
      "apogee_km": 483.3464435804908,
      "perigee_km": 482.696005780791,
      "latitude_deg": -5.226671590625161e-06,
      "longitude_deg": -110.15664431589796,
      "height_km": 482.55038451572653,
      "semi_major_axis_km": 6861.158224680641,
      "eccentricity": 4.74e-05,
      "inclination_deg": 43.0009,
      "raan_deg": 48.0081,
      "arg_perigee_deg": 40.8347,
      "mean_anomaly_deg": 319.254,
      "mean_motion_rev_day": 15.27589308
    },
    {
      "epoch": "2026-05-05T11:23:23.731872Z",
      "apogee_km": 483.9688770325647,
      "perigee_km": 482.03266395373066,
      "latitude_deg": 2.2155396066599718e-06,
      "longitude_deg": 10.117478960109851,
      "height_km": 482.7526041771892,
      "semi_major_axis_km": 6861.137770493147,
      "eccentricity": 0.0001411,
      "inclination_deg": 43.0004,
      "raan_deg": 44.3154,
      "arg_perigee_deg": 271.4752,
      "mean_anomaly_deg": 88.5938,
      "mean_motion_rev_day": 15.27596139
    },
    {
      "epoch": "2026-05-06T10:55:43.764096Z",
      "apogee_km": 484.74764715647143,
      "perigee_km": 481.25148640750285,
      "latitude_deg": -8.785471322741845e-06,
      "longitude_deg": 10.52698768177149,
      "height_km": 482.8749699523251,
      "semi_major_axis_km": 6861.136566781987,
      "eccentricity": 0.00025478,
      "inclination_deg": 43.0005,
      "raan_deg": 38.7751,
      "arg_perigee_deg": 266.7927,
      "mean_anomaly_deg": 93.2633,
      "mean_motion_rev_day": 15.27596541
    }
  ]
}